{
"type": "FeatureCollection",
"name": "road_dx",
"crs": { "type": "name", "properties": { "name": "urn:ogc:def:crs:EPSG::4545" } },
"features": [
{"type":"Feature","properties":{"id":1,"length_m":109.29,"oneway":"0","Shape_Leng":60.848366403999997},"geometry":{"type":"MultiLineString","coordinates":[[[586440.920699999667704,3789391.880200000479817],[586438.17119999974966,3789423.100400000810623],[586435.430200000293553,3789451.64780000038445],[586435.31940000038594,3789452.469000000506639]]]}},
{"type":"Feature","properties":{"id":2,"length_m":13.88,"oneway":"0","Shape_Leng":13.883969280800001},"geometry":{"type":"MultiLineString","coordinates":[[[586422.518600000068545,3789457.79839999973774],[586430.969399999827147,3789453.919299999251962],[586435.31940000038594,3789452.469000000506639]]]}},
{"type":"Feature","properties":{"id":3,"length_m":69.72,"oneway":"0","Shape_Leng":69.730016679499997},"geometry":{"type":"MultiLineString","coordinates":[[[586435.31940000038594,3789452.469000000506639],[586438.413200000301003,3789486.504599999636412],[586445.719899999909103,3789500.344200000166893],[586447.189100000075996,3789520.19400000013411]]]}},
{"type":"Feature","properties":{"id":4,"length_m":215.1,"oneway":"0","Shape_Leng":215.124552897},"geometry":{"type":"MultiLineString","coordinates":[[[586447.189100000075996,3789520.19400000013411],[586446.835900000296533,3789558.527100000530481],[586446.806599999777973,3789572.915699999779463],[586528.369300000369549,3789573.5647],[586532.108199999667704,3789492.815300000831485]]]}},
{"type":"Feature","properties":{"id":5,"length_m":31.3,"oneway":"0","Shape_Leng":31.300876892200002},"geometry":{"type":"MultiLineString","coordinates":[[[586447.189100000075996,3789520.19400000013411],[586478.462299999780953,3789521.509999999776483]]]}},
{"type":"Feature","properties":{"id":6,"length_m":12.59,"oneway":"0","Shape_Leng":12.5891151586},"geometry":{"type":"MultiLineString","coordinates":[[[586478.462299999780953,3789521.509999999776483],[586479.947499999776483,3789534.011199999600649]]]}},
{"type":"Feature","properties":{"id":7,"length_m":55.47,"oneway":"0","Shape_Leng":55.477437541699999},"geometry":{"type":"MultiLineString","coordinates":[[[586478.462299999780953,3789521.509999999776483],[586500.584300000220537,3789524.283299999311566],[586504.450299999676645,3789491.326999999582767]]]}},
{"type":"Feature","properties":{"id":8,"length_m":27.7,"oneway":"0","Shape_Leng":27.6979145299},"geometry":{"type":"MultiLineString","coordinates":[[[586504.450299999676645,3789491.326999999582767],[586532.108199999667704,3789492.815300000831485]]]}},
{"type":"Feature","properties":{"id":9,"length_m":30.72,"oneway":"0","Shape_Leng":30.718706339099999},"geometry":{"type":"MultiLineString","coordinates":[[[586478.462299999780953,3789521.509999999776483],[586481.119099999777973,3789490.906400000676513]]]}},
{"type":"Feature","properties":{"id":10,"length_m":53.53,"oneway":"0","Shape_Leng":53.535891685000003},"geometry":{"type":"MultiLineString","coordinates":[[[586481.119099999777973,3789490.906400000676513],[586464.636199999600649,3789486.848899999633431],[586468.579199999570847,3789462.321100000292063],[586468.893699999898672,3789450.607100000604987]]]}},
{"type":"Feature","properties":{"id":11,"length_m":24.51,"oneway":"0","Shape_Leng":24.515032953799999},"geometry":{"type":"MultiLineString","coordinates":[[[586481.119099999777973,3789490.906400000676513],[586490.93680000025779,3789489.969100000336766],[586495.283400000073016,3789488.878599999472499],[586497.260200000368059,3789487.252299999818206],[586497.639999999664724,3789479.6502]]]}},
{"type":"Feature","properties":{"id":12,"length_m":18.35,"oneway":"0","Shape_Leng":18.354751308800001},"geometry":{"type":"MultiLineString","coordinates":[[[586504.450299999676645,3789491.326999999582767],[586504.838700000196695,3789482.799900000914931],[586503.522099999710917,3789480.012800000607967],[586500.234400000423193,3789478.235200000926852],[586498.784199999645352,3789478.7357],[586497.639999999664724,3789479.6502]]]}},
{"type":"Feature","properties":{"id":13,"length_m":23.54,"oneway":"0","Shape_Leng":23.5411207109},"geometry":{"type":"MultiLineString","coordinates":[[[586497.639999999664724,3789479.6502],[586498.373200000263751,3789456.120500000193715]]]}},
{"type":"Feature","properties":{"id":14,"length_m":26.15,"oneway":"0","Shape_Leng":26.1501933931},"geometry":{"type":"MultiLineString","coordinates":[[[586435.31940000038594,3789452.469000000506639],[586456.505400000140071,3789450.3902000002563],[586461.360700000077486,3789450.126599999144673]]]}},
{"type":"Feature","properties":{"id":15,"length_m":7.55,"oneway":"0","Shape_Leng":7.5483090324099997},"geometry":{"type":"MultiLineString","coordinates":[[[586461.360700000077486,3789450.126599999144673],[586468.893699999898672,3789450.607100000604987]]]}},
{"type":"Feature","properties":{"id":16,"length_m":29.99,"oneway":"0","Shape_Leng":29.9906402037},"geometry":{"type":"MultiLineString","coordinates":[[[586468.893699999898672,3789450.607100000604987],[586498.373200000263751,3789456.120500000193715]]]}},
{"type":"Feature","properties":{"id":17,"length_m":8.36,"oneway":"0","Shape_Leng":8.3655854379400001},"geometry":{"type":"MultiLineString","coordinates":[[[586498.373200000263751,3789456.120500000193715],[586506.737800000235438,3789455.99210000038147]]]}},
{"type":"Feature","properties":{"id":18,"length_m":27.75,"oneway":"0","Shape_Leng":27.750837000499999},"geometry":{"type":"MultiLineString","coordinates":[[[586506.737800000235438,3789455.99210000038147],[586534.274600000120699,3789459.432099999859929]]]}},
{"type":"Feature","properties":{"id":19,"length_m":33.45,"oneway":"0","Shape_Leng":33.4534203224},"geometry":{"type":"MultiLineString","coordinates":[[[586532.108199999667704,3789492.815300000831485],[586534.274600000120699,3789459.432099999859929]]]}},
{"type":"Feature","properties":{"id":20,"length_m":27.57,"oneway":"0","Shape_Leng":27.571536418299999},"geometry":{"type":"MultiLineString","coordinates":[[[586461.360700000077486,3789450.126599999144673],[586462.853400000371039,3789422.595499999821186]]]}},
{"type":"Feature","properties":{"id":21,"length_m":46.28,"oneway":"0","Shape_Leng":46.281052856000002},"geometry":{"type":"MultiLineString","coordinates":[[[586462.853400000371039,3789422.595499999821186],[586509.092600000090897,3789424.563300000503659]]]}},
{"type":"Feature","properties":{"id":22,"length_m":31.51,"oneway":"0","Shape_Leng":31.516893128500001},"geometry":{"type":"MultiLineString","coordinates":[[[586506.737800000235438,3789455.99210000038147],[586509.092600000090897,3789424.563300000503659]]]}},
{"type":"Feature","properties":{"id":23,"length_m":57.98,"oneway":"0","Shape_Leng":57.989802011000002},"geometry":{"type":"MultiLineString","coordinates":[[[586534.274600000120699,3789459.432099999859929],[586539.969399999827147,3789401.7226]]]}},
{"type":"Feature","properties":{"id":24,"length_m":29.94,"oneway":"0","Shape_Leng":29.944773938000001},"geometry":{"type":"MultiLineString","coordinates":[[[586462.853400000371039,3789422.595499999821186],[586466.018799999728799,3789392.818499999120831]]]}},
{"type":"Feature","properties":{"id":25,"length_m":25.11,"oneway":"0","Shape_Leng":25.115633189299999},"geometry":{"type":"MultiLineString","coordinates":[[[586466.018799999728799,3789392.818499999120831],[586440.920699999667704,3789391.880200000479817]]]}},
{"type":"Feature","properties":{"id":26,"length_m":60.99,"oneway":"0","Shape_Leng":60.994893787499997},"geometry":{"type":"MultiLineString","coordinates":[[[586466.018799999728799,3789392.818499999120831],[586466.853400000371039,3789358.2664],[586493.282300000078976,3789358.715500000864267]]]}},
{"type":"Feature","properties":{"id":27,"length_m":23.45,"oneway":"0","Shape_Leng":23.4512785563},"geometry":{"type":"MultiLineString","coordinates":[[[586493.282300000078976,3789358.715500000864267],[586492.137099999934435,3789382.13880000077188]]]}},
{"type":"Feature","properties":{"id":28,"length_m":27.23,"oneway":"0","Shape_Leng":27.2323276959},"geometry":{"type":"MultiLineString","coordinates":[[[586512.439299999736249,3789397.537399999797344],[586509.092600000090897,3789424.563300000503659]]]}},
{"type":"Feature","properties":{"id":29,"length_m":27.84,"oneway":"0","Shape_Leng":27.846405603899999},"geometry":{"type":"MultiLineString","coordinates":[[[586512.439299999736249,3789397.537399999797344],[586539.969399999827147,3789401.7226]]]}},
{"type":"Feature","properties":{"id":30,"length_m":39.38,"oneway":"0","Shape_Leng":39.382324747600002},"geometry":{"type":"MultiLineString","coordinates":[[[586512.439299999736249,3789397.537399999797344],[586515.898599999956787,3789358.307299999520183]]]}},
{"type":"Feature","properties":{"id":31,"length_m":22.62,"oneway":"0","Shape_Leng":22.619983486399999},"geometry":{"type":"MultiLineString","coordinates":[[[586493.282300000078976,3789358.715500000864267],[586515.898599999956787,3789358.307299999520183]]]}},
{"type":"Feature","properties":{"id":32,"length_m":41.31,"oneway":"0","Shape_Leng":41.312985383799997},"geometry":{"type":"MultiLineString","coordinates":[[[586539.969399999827147,3789401.7226],[586544.168800000101328,3789360.62360000051558]]]}},
{"type":"Feature","properties":{"id":33,"length_m":28.36,"oneway":"0","Shape_Leng":28.364933522600001},"geometry":{"type":"MultiLineString","coordinates":[[[586515.898599999956787,3789358.307299999520183],[586544.168800000101328,3789360.62360000051558]]]}},
{"type":"Feature","properties":{"id":34,"length_m":156.43,"oneway":"0","Shape_Leng":156.44446420099999},"geometry":{"type":"MultiLineString","coordinates":[[[586544.168800000101328,3789360.62360000051558],[586621.795800000429153,3789362.778699999675155],[586625.619800000451505,3789284.084000000730157]]]}},
{"type":"Feature","properties":{"id":35,"length_m":36.03,"oneway":"0","Shape_Leng":36.031212741300003},"geometry":{"type":"MultiLineString","coordinates":[[[586625.619800000451505,3789284.084000000730157],[586628.016699999570847,3789248.13260000012815]]]}},
{"type":"Feature","properties":{"id":36,"length_m":40.8,"oneway":"0","Shape_Leng":40.8019159332},"geometry":{"type":"MultiLineString","coordinates":[[[586493.282300000078976,3789358.715500000864267],[586496.548200000077486,3789318.04450000077486]]]}},
{"type":"Feature","properties":{"id":37,"length_m":42.83,"oneway":"0","Shape_Leng":29.174742749899998},"geometry":{"type":"MultiLineString","coordinates":[[[586496.548200000077486,3789318.04450000077486],[586512.025600000284612,3789319.214999999850988],[586518.841699999757111,3789319.072300000116229],[586522.575600000098348,3789317.256699999794364],[586524.041799999773502,3789315.00899999961257]]]}},
{"type":"Feature","properties":{"id":38,"length_m":22.97,"oneway":"0","Shape_Leng":22.971422141000001},"geometry":{"type":"MultiLineString","coordinates":[[[586524.041799999773502,3789315.00899999961257],[586525.801799999549985,3789292.105100000277162]]]}},
{"type":"Feature","properties":{"id":39,"length_m":35.4,"oneway":"0","Shape_Leng":26.264197445299999},"geometry":{"type":"MultiLineString","coordinates":[[[586496.548200000077486,3789318.04450000077486],[586478.611899999901652,3789314.795800000429153],[586475.321299999952316,3789313.32660000026226],[586473.800099999643862,3789310.331900000572205],[586473.499800000339746,3789309.301300000399351]]]}},
{"type":"Feature","properties":{"id":40,"length_m":54.83,"oneway":"0","Shape_Leng":54.838712526099997},"geometry":{"type":"MultiLineString","coordinates":[[[586473.499800000339746,3789309.301300000399351],[586476.078099999576807,3789287.22719999961555],[586487.837700000032783,3789288.466099999845028],[586508.578700000420213,3789289.890699999406934]]]}},
{"type":"Feature","properties":{"id":41,"length_m":17.36,"oneway":"0","Shape_Leng":17.364870887599999},"geometry":{"type":"MultiLineString","coordinates":[[[586508.578700000420213,3789289.890699999406934],[586525.801799999549985,3789292.105100000277162]]]}},
{"type":"Feature","properties":{"id":42,"length_m":43.69,"oneway":"0","Shape_Leng":43.691391111599998},"geometry":{"type":"MultiLineString","coordinates":[[[586508.578700000420213,3789289.890699999406934],[586513.244300000369549,3789265.420399999246001],[586514.698300000280142,3789253.305600000545382],[586514.862099999561906,3789246.729100000113249]]]}},
{"type":"Feature","properties":{"id":43,"length_m":15.12,"oneway":"0","Shape_Leng":15.125998754799999},"geometry":{"type":"MultiLineString","coordinates":[[[586525.801799999549985,3789292.105100000277162],[586527.386099999770522,3789277.062300000339746]]]}},
{"type":"Feature","properties":{"id":44,"length_m":98.48,"oneway":"0","Shape_Leng":98.484334219800004},"geometry":{"type":"MultiLineString","coordinates":[[[586527.386099999770522,3789277.062300000339746],[586625.619800000451505,3789284.084000000730157]]]}},
{"type":"Feature","properties":{"id":45,"length_m":30.69,"oneway":"0","Shape_Leng":30.692260535},"geometry":{"type":"MultiLineString","coordinates":[[[586527.386099999770522,3789277.062300000339746],[586529.375300000421703,3789251.693600000813603],[586529.630099999718368,3789246.45409999974072]]]}},
{"type":"Feature","properties":{"id":46,"length_m":10.07,"oneway":"0","Shape_Leng":10.074244024},"geometry":{"type":"MultiLineString","coordinates":[[[586400.473000000230968,3789256.056199999526143],[586400.772199999541044,3789245.986400000751019]]]}},
{"type":"Feature","properties":{"id":47,"length_m":294.07,"oneway":"0","Shape_Leng":114.092317381},"geometry":{"type":"MultiLineString","coordinates":[[[586400.772199999541044,3789245.986400000751019],[586514.862099999561906,3789246.729100000113249]]]}},
{"type":"Feature","properties":{"id":1,"length_m":109.29,"oneway":"0","Shape_Leng":48.448191072999997},"geometry":{"type":"MultiLineString","coordinates":[[[586445.098600000143051,3789343.612500000745058],[586441.861299999989569,3789381.200200000777841],[586440.920699999667704,3789391.880200000479817]]]}},
{"type":"Feature","properties":{"id":47,"length_m":294.07,"oneway":"0","Shape_Leng":43.287745617699997},"geometry":{"type":"MultiLineString","coordinates":[[[586628.016699999570847,3789248.13260000012815],[586671.290699999779463,3789247.041799999773502]]]}},
{"type":"Feature","properties":{"id":47,"length_m":294.07,"oneway":"0","Shape_Leng":98.400916773099993},"geometry":{"type":"MultiLineString","coordinates":[[[586529.630099999718368,3789246.45409999974072],[586628.016699999570847,3789248.13260000012815]]]}},
{"type":"Feature","properties":{"id":47,"length_m":294.07,"oneway":"0","Shape_Leng":14.770560213},"geometry":{"type":"MultiLineString","coordinates":[[[586514.862099999561906,3789246.729100000113249],[586529.630099999718368,3789246.45409999974072]]]}},
{"type":"Feature","properties":{"id":47,"length_m":294.07,"oneway":"0","Shape_Leng":23.542087930800001},"geometry":{"type":"MultiLineString","coordinates":[[[586377.233900000341237,3789245.564099999144673],[586400.772199999541044,3789245.986400000751019]]]}},
{"type":"Feature","properties":{"id":39,"length_m":35.4,"oneway":"0","Shape_Leng":9.1437329282099995},"geometry":{"type":"MultiLineString","coordinates":[[[586473.499800000339746,3789309.301300000399351],[586468.963700000196695,3789308.540100000798702],[586464.419900000095367,3789308.600999999791384]]]}},
{"type":"Feature","properties":{"id":37,"length_m":42.83,"oneway":"0","Shape_Leng":13.654705570100001},"geometry":{"type":"MultiLineString","coordinates":[[[586524.041799999773502,3789315.00899999961257],[586529.620900000445545,3789314.649299999698997],[586537.670300000347197,3789315.134700000286102]]]}}
]
}
