{
"type": "FeatureCollection",
"name": "road_dc",
"crs": { "type": "name", "properties": { "name": "urn:ogc:def:crs:EPSG::4545" } },
"features": [
{"type":"Feature","properties":{"id":1,"length_m":256.91,"oneway":"0","Shape_Leng":28.624221845499999},"geometry":{"type":"MultiLineString","coordinates":[[[588548.176199999637902,3788365.077299999073148],[588519.556699999608099,3788364.557399999350309]]]}},
{"type":"Feature","properties":{"id":2,"length_m":78.08,"oneway":"0","Shape_Leng":31.3114369426},"geometry":{"type":"MultiLineString","coordinates":[[[588550.936999999918044,3788377.777200000360608],[588519.629999999888241,3788377.250099999830127]]]}},
{"type":"Feature","properties":{"id":3,"length_m":12.65,"oneway":"0","Shape_Leng":12.648102961399999},"geometry":{"type":"MultiLineString","coordinates":[[[588550.936999999918044,3788377.777200000360608],[588551.060499999672174,3788365.129699999466538]]]}},
{"type":"Feature","properties":{"id":4,"length_m":12.69,"oneway":"0","Shape_Leng":12.692911651499999},"geometry":{"type":"MultiLineString","coordinates":[[[588519.629999999888241,3788377.250099999830127],[588519.556699999608099,3788364.557399999350309]]]}},
{"type":"Feature","properties":{"id":5,"length_m":113.51,"oneway":"0","Shape_Leng":27.0887746366},"geometry":{"type":"MultiLineString","coordinates":[[[588625.085699999704957,3788485.559499999508262],[588622.583100000396371,3788475.938799999654293],[588615.176900000311434,3788466.849899999797344],[588610.691300000064075,3788463.801200000569224]]]}},
{"type":"Feature","properties":{"id":6,"length_m":18.74,"oneway":"0","Shape_Leng":18.7387092791},"geometry":{"type":"MultiLineString","coordinates":[[[588580.378499999642372,3788497.594699999317527],[588589.421099999919534,3788498.866900000721216],[588596.144100000150502,3788498.930400000885129],[588599.026499999687076,3788498.842000000178814]]]}},
{"type":"Feature","properties":{"id":7,"length_m":38.22,"oneway":"0","Shape_Leng":27.029049082499998},"geometry":{"type":"MultiLineString","coordinates":[[[588601.440100000239909,3788505.3429000005126],[588603.633799999952316,3788509.3498],[588605.541600000113249,3788510.755300000309944],[588610.64159999974072,3788509.762800000607967],[588615.384800000116229,3788505.876199999824166],[588619.265800000168383,3788501.75029999949038],[588621.582899999804795,3788500.500199999660254],[588622.03139999974519,3788500.372700000181794]]]}},
{"type":"Feature","properties":{"id":8,"length_m":22.15,"oneway":"0","Shape_Leng":22.152556565400001},"geometry":{"type":"MultiLineString","coordinates":[[[588601.440100000239909,3788505.3429000005126],[588609.335199999623001,3788505.703500000759959],[588614.068599999882281,3788502.8575],[588617.45299999974668,3788500.461200000718236],[588622.03139999974519,3788500.372700000181794]]]}},
{"type":"Feature","properties":{"id":9,"length_m":20.3,"oneway":"0","Shape_Leng":20.303362958499999},"geometry":{"type":"MultiLineString","coordinates":[[[588599.026499999687076,3788498.842000000178814],[588598.394000000320375,3788494.615599999204278],[588599.881599999964237,3788489.657600000500679],[588602.778099999763072,3788488.066199999302626],[588606.432099999859929,3788487.6382],[588610.269500000402331,3788488.136900000274181]]]}},
{"type":"Feature","properties":{"id":10,"length_m":25.09,"oneway":"0","Shape_Leng":25.096557902600001},"geometry":{"type":"MultiLineString","coordinates":[[[588626.109400000423193,3788499.213199999183416],[588634.773400000296533,3788497.155899999663234],[588644.872100000269711,3788495.748099999502301],[588650.742700000293553,3788494.531700000166893]]]}},
{"type":"Feature","properties":{"id":11,"length_m":24.14,"oneway":"0","Shape_Leng":24.140884834400001},"geometry":{"type":"MultiLineString","coordinates":[[[588650.742700000293553,3788494.531700000166893],[588654.750300000421703,3788497.3445999994874],[588658.192599999718368,3788498.995899999514222],[588662.226400000043213,3788499.034],[588668.380699999630451,3788498.282700000330806],[588671.282800000160933,3788496.113199999555945],[588672.634999999776483,3788495.316600000485778]]]}},
{"type":"Feature","properties":{"id":12,"length_m":11.96,"oneway":"0","Shape_Leng":11.9584709428},"geometry":{"type":"MultiLineString","coordinates":[[[588672.634999999776483,3788495.316600000485778],[588674.033099999651313,3788499.839299999177456],[588675.984400000423193,3788506.795399999246001]]]}},
{"type":"Feature","properties":{"id":13,"length_m":45.68,"oneway":"0","Shape_Leng":23.055141155899999},"geometry":{"type":"MultiLineString","coordinates":[[[588691.11600000038743,3788484.143300000578165],[588695.25760000012815,3788479.80489999987185],[588696.855399999767542,3788473.344900000840425],[588695.176900000311434,3788468.010099999606609],[588692.138500000350177,3788464.281300000846386]]]}},
{"type":"Feature","properties":{"id":14,"length_m":15.62,"oneway":"0","Shape_Leng":15.6169839924},"geometry":{"type":"MultiLineString","coordinates":[[[588691.11600000038743,3788484.143300000578165],[588684.226800000295043,3788478.197499999776483],[588679.938799999654293,3788474.572599999606609],[588679.369099999777973,3788473.873400000855327]]]}},
{"type":"Feature","properties":{"id":15,"length_m":20.87,"oneway":"0","Shape_Leng":20.868955098200001},"geometry":{"type":"MultiLineString","coordinates":[[[588650.742700000293553,3788494.531700000166893],[588659.791500000283122,3788492.420199999585748],[588669.322700000368059,3788490.082000000402331],[588671.054700000211596,3788489.751499999314547]]]}},
{"type":"Feature","properties":{"id":16,"length_m":5.78,"oneway":"0","Shape_Leng":5.7851262831200003},"geometry":{"type":"MultiLineString","coordinates":[[[588672.634999999776483,3788495.316600000485778],[588671.054700000211596,3788489.751499999314547]]]}},
{"type":"Feature","properties":{"id":17,"length_m":19.6,"oneway":"0","Shape_Leng":19.599314839600002},"geometry":{"type":"MultiLineString","coordinates":[[[588671.054700000211596,3788489.751499999314547],[588690.11600000038743,3788485.1908]]]}},
{"type":"Feature","properties":{"id":18,"length_m":41.51,"oneway":"0","Shape_Leng":27.884728788299999},"geometry":{"type":"MultiLineString","coordinates":[[[588687.096300000324845,3788462.640599999576807],[588689.010599999688566,3788459.857899999246001],[588694.962100000120699,3788450.085799999535084],[588695.085500000044703,3788437.020999999716878]]]}},
{"type":"Feature","properties":{"id":19,"length_m":4.41,"oneway":"0","Shape_Leng":4.4075251160200004},"geometry":{"type":"MultiLineString","coordinates":[[[588691.375599999912083,3788463.696000000461936],[588687.096300000324845,3788462.640599999576807]]]}},
{"type":"Feature","properties":{"id":20,"length_m":17.35,"oneway":"0","Shape_Leng":17.355140666200001},"geometry":{"type":"MultiLineString","coordinates":[[[588687.096300000324845,3788462.640599999576807],[588680.958200000226498,3788458.16300000064075],[588673.720099999569356,3788451.6195]]]}},
{"type":"Feature","properties":{"id":21,"length_m":25.44,"oneway":"0","Shape_Leng":20.643282561300001},"geometry":{"type":"MultiLineString","coordinates":[[[588673.720099999569356,3788451.6195],[588674.071000000461936,3788430.9792]]]}},
{"type":"Feature","properties":{"id":22,"length_m":26.53,"oneway":"0","Shape_Leng":9.9070196993900002},"geometry":{"type":"MultiLineString","coordinates":[[[588686.931200000457466,3788427.390699999406934],[588689.11780000012368,3788428.176899999380112],[588692.933299999684095,3788430.987999999895692],[588693.888899999670684,3788433.666799999773502]]]}},
{"type":"Feature","properties":{"id":23,"length_m":62.49,"oneway":"0","Shape_Leng":43.877849464000001},"geometry":{"type":"MultiLineString","coordinates":[[[588692.138500000350177,3788464.281300000846386],[588706.14879999961704,3788455.51039999909699],[588715.615799999795854,3788439.643200000748038],[588716.808799999766052,3788435.376199999824166],[588714.331299999728799,3788433.271500000730157],[588713.14809999987483,3788433.1415]]]}},
{"type":"Feature","properties":{"id":24,"length_m":170.49,"oneway":"0","Shape_Leng":23.576304664599999},"geometry":{"type":"MultiLineString","coordinates":[[[588678.562300000339746,3788318.992499999701977],[588675.298000000417233,3788315.07799999974668],[588667.556699999608099,3788310.957900000736117],[588658.066800000146031,3788308.902599999681115]]]}},
{"type":"Feature","properties":{"id":25,"length_m":16.63,"oneway":"0","Shape_Leng":16.627998549899999},"geometry":{"type":"MultiLineString","coordinates":[[[588650.742700000293553,3788494.531700000166893],[588645.657399999909103,3788478.700400000438094]]]}},
{"type":"Feature","properties":{"id":26,"length_m":21.77,"oneway":"0","Shape_Leng":21.767244495},"geometry":{"type":"MultiLineString","coordinates":[[[588625.085699999704957,3788485.559499999508262],[588631.980100000277162,3788482.733899999409914],[588638.716199999675155,3788481.410000000149012],[588645.657399999909103,3788478.700400000438094]]]}},
{"type":"Feature","properties":{"id":27,"length_m":8.99,"oneway":"0","Shape_Leng":8.9930199478299997},"geometry":{"type":"MultiLineString","coordinates":[[[588645.657399999909103,3788478.700400000438094],[588653.170599999837577,3788476.458799999207258],[588654.323099999688566,3788476.469699999317527]]]}},
{"type":"Feature","properties":{"id":28,"length_m":25.92,"oneway":"0","Shape_Leng":25.922462108000001},"geometry":{"type":"MultiLineString","coordinates":[[[588654.323099999688566,3788476.469699999317527],[588666.802199999801815,3788477.281400000676513],[588672.951100000180304,3788477.108200000599027],[588676.805900000035763,3788475.757099999114871],[588679.369099999777973,3788473.873400000855327]]]}},
{"type":"Feature","properties":{"id":29,"length_m":34.49,"oneway":"0","Shape_Leng":24.548848211700001},"geometry":{"type":"MultiLineString","coordinates":[[[588654.323099999688566,3788476.469699999317527],[588653.209999999962747,3788451.946100000292063]]]}},
{"type":"Feature","properties":{"id":30,"length_m":27.84,"oneway":"0","Shape_Leng":27.847568336199998},"geometry":{"type":"MultiLineString","coordinates":[[[588645.657399999909103,3788478.700400000438094],[588634.564500000327826,3788453.157600000500679]]]}},
{"type":"Feature","properties":{"id":31,"length_m":18.68,"oneway":"0","Shape_Leng":18.684817432500001},"geometry":{"type":"MultiLineString","coordinates":[[[588634.564500000327826,3788453.157600000500679],[588653.209999999962747,3788451.946100000292063]]]}},
{"type":"Feature","properties":{"id":32,"length_m":20.51,"oneway":"0","Shape_Leng":20.512700201400001},"geometry":{"type":"MultiLineString","coordinates":[[[588653.209999999962747,3788451.946100000292063],[588673.720099999569356,3788451.6195]]]}},
{"type":"Feature","properties":{"id":33,"length_m":26.71,"oneway":"0","Shape_Leng":17.685402273699999},"geometry":{"type":"MultiLineString","coordinates":[[[588634.593000000342727,3788448.297700000926852],[588634.696399999782443,3788430.612600000575185]]]}},
{"type":"Feature","properties":{"id":34,"length_m":18.77,"oneway":"0","Shape_Leng":10.215264337900001},"geometry":{"type":"MultiLineString","coordinates":[[[588653.111800000071526,3788442.001199999824166],[588649.848500000312924,3788441.739099999889731],[588650.000099999830127,3788434.7993]]]}},
{"type":"Feature","properties":{"id":35,"length_m":19.47,"oneway":"0","Shape_Leng":10.686497023699999},"geometry":{"type":"MultiLineString","coordinates":[[[588653.111800000071526,3788442.001199999824166],[588656.858599999919534,3788441.921],[588656.881799999624491,3788434.982200000435114]]]}},
{"type":"Feature","properties":{"id":36,"length_m":6.88,"oneway":"0","Shape_Leng":6.8841301046199996},"geometry":{"type":"MultiLineString","coordinates":[[[588650.000099999830127,3788434.7993],[588656.881799999624491,3788434.982200000435114]]]}},
{"type":"Feature","properties":{"id":37,"length_m":6.8,"oneway":"0","Shape_Leng":6.8049342570800002},"geometry":{"type":"MultiLineString","coordinates":[[[588650.09360000025481,3788430.521199999377131],[588656.895999999716878,3788430.706900000572205]]]}},
{"type":"Feature","properties":{"id":38,"length_m":17.18,"oneway":"0","Shape_Leng":17.177158447099998},"geometry":{"type":"MultiLineString","coordinates":[[[588656.895999999716878,3788430.706900000572205],[588674.071000000461936,3788430.9792]]]}},
{"type":"Feature","properties":{"id":39,"length_m":17.24,"oneway":"0","Shape_Leng":17.2414032583},"geometry":{"type":"MultiLineString","coordinates":[[[588656.911100000143051,3788426.196100000292063],[588659.314600000157952,3788426.194599999114871],[588674.152499999850988,3788426.185499999672174]]]}},
{"type":"Feature","properties":{"id":40,"length_m":6.72,"oneway":"0","Shape_Leng":6.7244018359000002},"geometry":{"type":"MultiLineString","coordinates":[[[588650.186900000087917,3788426.248199999332428],[588656.911100000143051,3788426.196100000292063]]]}},
{"type":"Feature","properties":{"id":41,"length_m":15.31,"oneway":"0","Shape_Leng":15.3974712799},"geometry":{"type":"MultiLineString","coordinates":[[[588634.696399999782443,3788430.612600000575185],[588650.09360000025481,3788430.521199999377131]]]}},
{"type":"Feature","properties":{"id":42,"length_m":15.47,"oneway":"0","Shape_Leng":15.4675047516},"geometry":{"type":"MultiLineString","coordinates":[[[588634.720700000412762,3788426.449100000783801],[588647.499900000169873,3788426.283099999651313],[588650.186900000087917,3788426.248199999332428]]]}},
{"type":"Feature","properties":{"id":43,"length_m":25.86,"oneway":"0","Shape_Leng":25.857702400099999},"geometry":{"type":"MultiLineString","coordinates":[[[588647.499900000169873,3788426.283099999651313],[588648.999499999918044,3788419.761800000444055],[588651.722599999979138,3788416.203099999576807],[588655.466099999845028,3788416.469699999317527],[588658.883200000040233,3788420.780200000852346],[588659.314600000157952,3788426.194599999114871]]]}},
{"type":"Feature","properties":{"id":44,"length_m":99.43,"oneway":"0","Shape_Leng":35.963203762100001},"geometry":{"type":"MultiLineString","coordinates":[[[588633.590400000102818,3788405.900399999693036],[588635.027400000020862,3788404.135800000280142],[588643.65500000026077,3788395.776399999856949],[588649.509300000034273,3788386.119000000879169],[588651.862399999983609,3788381.053600000217557],[588653.537700000219047,3788376.559900000691414]]]}},
{"type":"Feature","properties":{"id":45,"length_m":32.79,"oneway":"0","Shape_Leng":32.773281546100002},"geometry":{"type":"MultiLineString","coordinates":[[[588603.2807,3788475.525299999862909],[588601.651200000196695,3788470.075400000438094],[588597.487599999643862,3788463.445299999788404],[588590.525500000454485,3788458.176400000229478],[588584.232499999925494,3788453.260600000619888],[588581.764000000432134,3788452.664599999785423]]]}},
{"type":"Feature","properties":{"id":46,"length_m":11.65,"oneway":"0","Shape_Leng":11.650311784499999},"geometry":{"type":"MultiLineString","coordinates":[[[588582.139000000432134,3788438.197200000286102],[588593.788800000213087,3788438.087999999523163]]]}},
{"type":"Feature","properties":{"id":47,"length_m":23.68,"oneway":"0","Shape_Leng":23.681897122100001},"geometry":{"type":"MultiLineString","coordinates":[[[588593.788800000213087,3788438.087999999523163],[588597.578099999576807,3788443.673900000751019],[588603.408400000073016,3788446.735200000926852],[588610.970700000412762,3788449.466],[588613.074900000356138,3788450.410900000482798]]]}},
{"type":"Feature","properties":{"id":48,"length_m":22.64,"oneway":"0","Shape_Leng":22.6382803019},"geometry":{"type":"MultiLineString","coordinates":[[[588613.074900000356138,3788450.410900000482798],[588617.28110000025481,3788452.531899999827147],[588620.452800000086427,3788452.330600000917912],[588624.791100000031292,3788450.6371],[588629.703499999828637,3788449.180400000885129],[588634.593000000342727,3788448.297700000926852]]]}},
{"type":"Feature","properties":{"id":49,"length_m":44.09,"oneway":"0","Shape_Leng":17.3300614043},"geometry":{"type":"MultiLineString","coordinates":[[[588608.056599999777973,3788422.3816],[588612.101400000043213,3788421.263499999418855],[588616.626299999654293,3788420.150000000372529],[588619.494500000029802,3788421.564600000157952],[588623.110100000165403,3788425.406400000676513]]]}},
{"type":"Feature","properties":{"id":50,"length_m":11.67,"oneway":"0","Shape_Leng":11.6740100989},"geometry":{"type":"MultiLineString","coordinates":[[[588623.110100000165403,3788425.406400000676513],[588628.149600000120699,3788425.54869999922812],[588634.720700000412762,3788426.449100000783801]]]}},
{"type":"Feature","properties":{"id":51,"length_m":11.34,"oneway":"0","Shape_Leng":11.3375916728},"geometry":{"type":"MultiLineString","coordinates":[[[588593.788800000213087,3788438.087999999523163],[588593.511500000022352,3788426.753799999132752]]]}},
{"type":"Feature","properties":{"id":52,"length_m":74.11,"oneway":"0","Shape_Leng":28.695045775499999},"geometry":{"type":"MultiLineString","coordinates":[[[588679.486399999819696,3788425.86009999923408],[588680.032300000078976,3788408.752399999648333],[588683.363300000317395,3788401.846200000494719],[588685.577899999916553,3788398.622500000521541]]]}},
{"type":"Feature","properties":{"id":53,"length_m":25.31,"oneway":"0","Shape_Leng":25.307734073900001},"geometry":{"type":"MultiLineString","coordinates":[[[588679.486399999819696,3788425.86009999923408],[588683.328499999828637,3788414.332599999383092],[588688.681599999777973,3788405.8235],[588691.571899999864399,3788404.6919]]]}},
{"type":"Feature","properties":{"id":54,"length_m":53.41,"oneway":"0","Shape_Leng":19.149334806599999},"geometry":{"type":"MultiLineString","coordinates":[[[588715.139499999582767,3788404.9222999997437],[588716.553000000305474,3788397.6513],[588715.556599999777973,3788391.282600000500679],[588713.778699999675155,3788386.2939]]]}},
{"type":"Feature","properties":{"id":55,"length_m":21.21,"oneway":"0","Shape_Leng":21.221718428900001},"geometry":{"type":"MultiLineString","coordinates":[[[588692.351099999621511,3788385.380400000140071],[588700.791000000201166,3788387.674900000914931],[588707.811599999666214,3788387.1634],[588713.016200000420213,3788385.593299999833107]]]}},
{"type":"Feature","properties":{"id":56,"length_m":19.33,"oneway":"0","Shape_Leng":19.327213583},"geometry":{"type":"MultiLineString","coordinates":[[[588691.571899999864399,3788404.6919],[588692.351099999621511,3788385.380400000140071]]]}},
{"type":"Feature","properties":{"id":57,"length_m":23.93,"oneway":"0","Shape_Leng":13.391155922199999},"geometry":{"type":"MultiLineString","coordinates":[[[588692.916000000201166,3788418.703400000929832],[588700.512900000438094,3788407.675699999555945]]]}},
{"type":"Feature","properties":{"id":58,"length_m":12.81,"oneway":"0","Shape_Leng":12.806358921199999},"geometry":{"type":"MultiLineString","coordinates":[[[588693.888899999670684,3788433.666799999773502],[588696.052899999544024,3788421.044600000604987]]]}},
{"type":"Feature","properties":{"id":59,"length_m":22.39,"oneway":"0","Shape_Leng":7.4199712182899997},"geometry":{"type":"MultiLineString","coordinates":[[[588696.052899999544024,3788421.044600000604987],[588703.041100000031292,3788423.538799999281764]]]}},
{"type":"Feature","properties":{"id":60,"length_m":25.96,"oneway":"0","Shape_Leng":15.7421852476},"geometry":{"type":"MultiLineString","coordinates":[[[588710.424300000071526,3788423.3004],[588708.596699999645352,3788415.845100000500679],[588708.370199999772012,3788409.599899999797344],[588707.902099999599159,3788407.844399999827147]]]}},
{"type":"Feature","properties":{"id":61,"length_m":8.83,"oneway":"0","Shape_Leng":8.8236430396000003},"geometry":{"type":"MultiLineString","coordinates":[[[588719.145200000144541,3788412.784299999475479],[588715.139499999582767,3788404.9222999997437]]]}},
{"type":"Feature","properties":{"id":62,"length_m":16.07,"oneway":"0","Shape_Leng":16.063304044900001},"geometry":{"type":"MultiLineString","coordinates":[[[588703.041100000031292,3788423.538799999281764],[588700.512900000438094,3788407.675699999555945]]]}},
{"type":"Feature","properties":{"id":63,"length_m":29.36,"oneway":"0","Shape_Leng":16.679146826},"geometry":{"type":"MultiLineString","coordinates":[[[588725.427600000053644,3788397.531199999153614],[588723.510700000450015,3788393.207900000736117],[588718.259999999776483,3788389.805099999532104],[588713.778699999675155,3788386.2939]]]}},
{"type":"Feature","properties":{"id":64,"length_m":42.32,"oneway":"0","Shape_Leng":33.421541697599999},"geometry":{"type":"MultiLineString","coordinates":[[[588713.016200000420213,3788385.593299999833107],[588722.68709999974817,3788378.396600000560284],[588726.791500000283122,3788370.686699999496341],[588725.998700000345707,3788362.816800000146031],[588722.821600000374019,3788359.322599999606609]]]}},
{"type":"Feature","properties":{"id":65,"length_m":5.44,"oneway":"0","Shape_Leng":5.4348241786499996},"geometry":{"type":"MultiLineString","coordinates":[[[588722.821600000374019,3788359.322599999606609],[588727.173499999567866,3788356.067099999636412]]]}},
{"type":"Feature","properties":{"id":66,"length_m":8.65,"oneway":"0","Shape_Leng":8.6480231368399991},"geometry":{"type":"MultiLineString","coordinates":[[[588608.056599999777973,3788422.3816],[588606.69649999961257,3788413.841199999675155]]]}},
{"type":"Feature","properties":{"id":67,"length_m":41.97,"oneway":"0","Shape_Leng":17.550345930700001},"geometry":{"type":"MultiLineString","coordinates":[[[588606.69649999961257,3788413.841199999675155],[588602.569899999536574,3788413.455399999395013],[588599.902499999850988,3788411.11769999936223],[588599.07079999987036,3788407.641000000759959],[588599.876299999654293,3788403.717299999669194],[588601.0472999997437,3788401.762599999085069]]]}},
{"type":"Feature","properties":{"id":68,"length_m":21.16,"oneway":"0","Shape_Leng":21.1658858624},"geometry":{"type":"MultiLineString","coordinates":[[[588601.0472999997437,3788401.762599999085069],[588597.087700000032783,3788393.862600000575185],[588596.187300000339746,3788387.494599999859929],[588596.133799999952316,3788382.9846],[588596.146900000050664,3788381.597200000658631]]]}},
{"type":"Feature","properties":{"id":69,"length_m":13.01,"oneway":"0","Shape_Leng":13.0119585633},"geometry":{"type":"MultiLineString","coordinates":[[[588596.146900000050664,3788381.597200000658631],[588592.031200000084937,3788380.05519999936223],[588587.148199999704957,3788378.3903],[588583.690899999812245,3788378.32880000025034]]]}},
{"type":"Feature","properties":{"id":70,"length_m":23.97,"oneway":"0","Shape_Leng":23.968688020799998},"geometry":{"type":"MultiLineString","coordinates":[[[588612.053600000217557,3788405.849600000306964],[588617.645399999804795,3788403.769300000742078],[588621.498100000433624,3788402.649399999529123],[588626.399600000120699,3788402.348799999803305],[588630.819799999706447,3788402.159299999475479],[588633.590400000102818,3788405.900399999693036]]]}},
{"type":"Feature","properties":{"id":71,"length_m":11.89,"oneway":"0","Shape_Leng":11.8894679729},"geometry":{"type":"MultiLineString","coordinates":[[[588633.590400000102818,3788405.900399999693036],[588632.466699999757111,3788400.671700000762939],[588632.310600000433624,3788396.854499999433756],[588631.759499999694526,3788394.189899999648333]]]}},
{"type":"Feature","properties":{"id":72,"length_m":43.04,"oneway":"0","Shape_Leng":39.674924643099999},"geometry":{"type":"MultiLineString","coordinates":[[[588596.146900000050664,3788381.597200000658631],[588600.142500000074506,3788385.681800000369549],[588607.747499999590218,3788394.07880000025034],[588612.32149999961257,3788397.937699999660254],[588621.373700000345707,3788395.479299999773502],[588626.573099999688566,3788394.140900000929832],[588628.454400000162423,3788393.884500000625849]]]}},
{"type":"Feature","properties":{"id":73,"length_m":42.72,"oneway":"0","Shape_Leng":29.336445222399998},"geometry":{"type":"MultiLineString","coordinates":[[[588628.872700000181794,3788384.565500000491738],[588630.629900000058115,3788381.575799999758601],[588636.012699999846518,3788381.164100000634789],[588637.479600000195205,3788378.402899999171495],[588637.736100000329316,3788371.583200000226498],[588640.093500000424683,3788366.055400000885129],[588642.339599999599159,3788362.145199999213219]]]}},
{"type":"Feature","properties":{"id":74,"length_m":67.7,"oneway":"0","Shape_Leng":67.709819251900001},"geometry":{"type":"MultiLineString","coordinates":[[[588583.690899999812245,3788378.32880000025034],[588587.956899999640882,3788374.119699999690056],[588589.821000000461936,3788369.974700000137091],[588593.005800000391901,3788368.385900000110269],[588597.134600000455976,3788368.540500000119209],[588602.559999999590218,3788363.619799999520183],[588605.184799999929965,3788360.291300000622869],[588610.573099999688566,3788359.3015],[588614.991100000217557,3788359.3432],[588618.81319999974221,3788361.46059999987483],[588631.296799999661744,3788361.809699999168515],[588638.985700000077486,3788361.304199999198318],[588642.339599999599159,3788362.145199999213219]]]}},
{"type":"Feature","properties":{"id":75,"length_m":19.66,"oneway":"0","Shape_Leng":19.661783906299998},"geometry":{"type":"MultiLineString","coordinates":[[[588653.537700000219047,3788376.559900000691414],[588649.201899999752641,3788372.905600000172853],[588648.021499999798834,3788370.755300000309944],[588647.772099999710917,3788366.648199999704957],[588647.133100000210106,3788363.115499999374151],[588645.533099999651313,3788359.6316]]]}},
{"type":"Feature","properties":{"id":76,"length_m":58.44,"oneway":"0","Shape_Leng":36.628749350200003},"geometry":{"type":"MultiLineString","coordinates":[[[588653.537700000219047,3788376.559900000691414],[588658.233799999579787,3788377.673800000920892],[588664.24959999974817,3788381.430700000375509],[588667.966900000348687,3788384.472200000658631],[588672.459099999628961,3788386.827099999412894],[588675.63399999961257,3788386.278999999165535],[588677.012500000186265,3788382.707599999383092],[588676.767,3788378.195800000801682],[588677.75690000038594,3788375.083200000226498]]]}},
{"type":"Feature","properties":{"id":77,"length_m":29.58,"oneway":"0","Shape_Leng":29.582974571200001},"geometry":{"type":"MultiLineString","coordinates":[[[588680.550999999977648,3788353.834000000730157],[588685.254999999888241,3788354.1097],[588691.405100000090897,3788353.821000000461936],[588696.420199999585748,3788351.671399999409914],[588703.852699999697506,3788347.8103],[588706.943599999882281,3788345.989499999210238],[588707.86629999987781,3788345.081199999898672]]]}},
{"type":"Feature","properties":{"id":78,"length_m":38.08,"oneway":"0","Shape_Leng":19.505767345500001},"geometry":{"type":"MultiLineString","coordinates":[[[588671.395700000226498,3788346.867799999192357],[588672.27379999961704,3788345.430700000375509],[588676.895999999716878,3788344.20240000076592],[588681.200500000268221,3788346.093100000172853],[588682.416299999691546,3788349.573400000110269],[588680.550999999977648,3788353.834000000730157]]]}},
{"type":"Feature","properties":{"id":79,"length_m":52.55,"oneway":"0","Shape_Leng":19.350906119400001},"geometry":{"type":"MultiLineString","coordinates":[[[588646.873499999754131,3788344.766200000420213],[588647.337299999780953,3788341.495100000873208],[588652.355100000277162,3788326.252699999138713]]]}},
{"type":"Feature","properties":{"id":80,"length_m":52.11,"oneway":"0","Shape_Leng":44.196732585699998},"geometry":{"type":"MultiLineString","coordinates":[[[588658.066800000146031,3788308.902599999681115],[588671.644500000402331,3788279.863800000399351],[588674.637199999764562,3788268.097999999299645]]]}},
{"type":"Feature","properties":{"id":81,"length_m":141.5,"oneway":"0","Shape_Leng":76.548229673899996},"geometry":{"type":"MultiLineString","coordinates":[[[588645.754399999976158,3788354.777000000700355],[588569.240299999713898,3788352.491399999707937]]]}},
{"type":"Feature","properties":{"id":82,"length_m":13.21,"oneway":"0","Shape_Leng":13.2096121945},"geometry":{"type":"MultiLineString","coordinates":[[[588548.176199999637902,3788365.077299999073148],[588548.513700000010431,3788351.871999999508262]]]}},
{"type":"Feature","properties":{"id":83,"length_m":13.14,"oneway":"0","Shape_Leng":13.144423381199999},"geometry":{"type":"MultiLineString","coordinates":[[[588553.746000000275671,3788365.17850000038743],[588554.094600000418723,3788352.038699999451637]]]}},
{"type":"Feature","properties":{"id":84,"length_m":184.96,"oneway":"0","Shape_Leng":27.938340544100001},"geometry":{"type":"MultiLineString","coordinates":[[[588570.249699999578297,3788324.5713],[588569.240299999713898,3788352.491399999707937]]]}},
{"type":"Feature","properties":{"id":85,"length_m":35.4,"oneway":"0","Shape_Leng":18.612745428},"geometry":{"type":"MultiLineString","coordinates":[[[588551.637799999676645,3788324.393899999558926],[588570.249699999578297,3788324.5713]]]}},
{"type":"Feature","properties":{"id":86,"length_m":30.66,"oneway":"0","Shape_Leng":30.664177510799998},"geometry":{"type":"MultiLineString","coordinates":[[[588534.847199999727309,3788324.233899999409914],[588504.198400000110269,3788323.262900000438094]]]}},
{"type":"Feature","properties":{"id":87,"length_m":29.79,"oneway":"0","Shape_Leng":29.793166426700001},"geometry":{"type":"MultiLineString","coordinates":[[[588535.487300000153482,3788287.013299999758601],[588505.69539999961853,3788286.738600000739098]]]}},
{"type":"Feature","properties":{"id":88,"length_m":35.84,"oneway":"0","Shape_Leng":18.168906803500001},"geometry":{"type":"MultiLineString","coordinates":[[[588535.260499999858439,3788300.200200000777841],[588553.417600000277162,3788300.855100000277162]]]}},
{"type":"Feature","properties":{"id":89,"length_m":23.6,"oneway":"0","Shape_Leng":23.605990626299999},"geometry":{"type":"MultiLineString","coordinates":[[[588551.637799999676645,3788324.393899999558926],[588553.417600000277162,3788300.855100000277162]]]}},
{"type":"Feature","properties":{"id":90,"length_m":168.93,"oneway":"0","Shape_Leng":109.485691125},"geometry":{"type":"MultiLineString","coordinates":[[[588565.3273,3788261.896199999377131],[588674.637199999764562,3788268.097999999299645]]]}},
{"type":"Feature","properties":{"id":91,"length_m":15.47,"oneway":"0","Shape_Leng":15.4703296728},"geometry":{"type":"MultiLineString","coordinates":[[[588541.724799999967217,3788276.025399999693036],[588541.694500000216067,3788260.555099999532104]]]}},
{"type":"Feature","properties":{"id":92,"length_m":15.32,"oneway":"0","Shape_Leng":15.3181596288},"geometry":{"type":"MultiLineString","coordinates":[[[588552.847099999897182,3788276.52309999987483],[588554.193199999630451,3788261.2642]]]}},
{"type":"Feature","properties":{"id":93,"length_m":15.17,"oneway":"0","Shape_Leng":15.171032877},"geometry":{"type":"MultiLineString","coordinates":[[[588564.759399999864399,3788277.056199999526143],[588565.3273,3788261.8958]]]}},
{"type":"Feature","properties":{"id":94,"length_m":53.29,"oneway":"0","Shape_Leng":8.8149192068400009},"geometry":{"type":"MultiLineString","coordinates":[[[588689.841400000266731,3788335.060000000521541],[588692.561099999584258,3788333.134500000625849],[588696.201799999922514,3788329.035199999809265]]]}},
{"type":"Feature","properties":{"id":95,"length_m":9.71,"oneway":"0","Shape_Leng":9.7555079541800005},"geometry":{"type":"MultiLineString","coordinates":[[[588671.395800000056624,3788346.867799999192357],[588663.046799999661744,3788341.821599999442697]]]}},
{"type":"Feature","properties":{"id":96,"length_m":33.85,"oneway":"0","Shape_Leng":22.023361959},"geometry":{"type":"MultiLineString","coordinates":[[[588652.355100000277162,3788326.252699999138713],[588657.834800000302494,3788323.2961],[588663.689699999988079,3788323.756100000813603],[588669.560399999842048,3788327.627299999818206],[588671.405500000342727,3788329.854000000283122]]]}},
{"type":"Feature","properties":{"id":97,"length_m":12.73,"oneway":"0","Shape_Leng":12.727927077},"geometry":{"type":"MultiLineString","coordinates":[[[588685.792100000195205,3788337.926899999380112],[588676.218000000342727,3788329.540200000628829]]]}},
{"type":"Feature","properties":{"id":98,"length_m":14.15,"oneway":"0","Shape_Leng":14.1486506401},"geometry":{"type":"MultiLineString","coordinates":[[[588689.841400000266731,3788335.060000000521541],[588678.989099999889731,3788325.981899999082088]]]}},
{"type":"Feature","properties":{"id":99,"length_m":13.01,"oneway":"0","Shape_Leng":13.007381308399999},"geometry":{"type":"MultiLineString","coordinates":[[[588671.405500000342727,3788329.854000000283122],[588678.562300000339746,3788318.992499999701977]]]}},
{"type":"Feature","properties":{"id":100,"length_m":15.06,"oneway":"0","Shape_Leng":5.7319491594300001},"geometry":{"type":"MultiLineString","coordinates":[[[588678.989099999889731,3788325.981899999082088],[588679.971699999645352,3788320.334799999371171]]]}},
{"type":"Feature","properties":{"id":101,"length_m":36.64,"oneway":"0","Shape_Leng":36.646363202800003},"geometry":{"type":"MultiLineString","coordinates":[[[588596.146900000050664,3788381.597200000658631],[588605.612900000065565,3788381.0793999992311],[588612.555399999953806,3788388.429500000551343],[588623.659900000318885,3788387.320299999788404],[588628.872700000181794,3788384.565500000491738]]]}},
{"type":"Feature","properties":{"id":102,"length_m":3.27,"oneway":"0","Shape_Leng":3.2739068607699999},"geometry":{"type":"MultiLineString","coordinates":[[[588588.229399999603629,3788543.7193],[588586.961199999786913,3788540.700999999418855]]]}},
{"type":"Feature","properties":{"id":103,"length_m":91.55,"oneway":"0","Shape_Leng":50.2948792145},"geometry":{"type":"MultiLineString","coordinates":[[[588588.229399999603629,3788543.7193],[588573.590099999681115,3788547.917199999094009],[588565.602300000376999,3788549.576199999079108],[588541.600499999709427,3788548.424799999222159],[588538.723399999551475,3788548.356100000441074]]]}},
{"type":"Feature","properties":{"id":104,"length_m":100.98,"oneway":"0","Shape_Leng":41.584630969800003},"geometry":{"type":"MultiLineString","coordinates":[[[588578.752399999648333,3788560.684900000691414],[588548.121600000187755,3788569.877399999648333],[588538.520299999974668,3788569.6414]]]}},
{"type":"Feature","properties":{"id":105,"length_m":21.28,"oneway":"0","Shape_Leng":21.286268947},"geometry":{"type":"MultiLineString","coordinates":[[[588538.723399999551475,3788548.356100000441074],[588538.520299999974668,3788569.6414]]]}},
{"type":"Feature","properties":{"id":106,"length_m":11.56,"oneway":"0","Shape_Leng":11.5639232706},"geometry":{"type":"MultiLineString","coordinates":[[[588578.752399999648333,3788560.684900000691414],[588578.451200000010431,3788572.244899999350309]]]}},
{"type":"Feature","properties":{"id":107,"length_m":33.24,"oneway":"0","Shape_Leng":33.244980636000001},"geometry":{"type":"MultiLineString","coordinates":[[[588588.229399999603629,3788543.7193],[588587.435499999672174,3788576.954800000414252]]]}},
{"type":"Feature","properties":{"id":108,"length_m":166.22,"oneway":"0","Shape_Leng":166.23365172600001},"geometry":{"type":"MultiLineString","coordinates":[[[588675.671900000423193,3788260.245100000873208],[588509.620500000193715,3788252.46309999935329]]]}},
{"type":"Feature","properties":{"id":109,"length_m":114.59,"oneway":"0","Shape_Leng":114.599538165},"geometry":{"type":"MultiLineString","coordinates":[[[588675.671900000423193,3788260.245100000873208],[588790.170400000177324,3788265.05629999935627]]]}},
{"type":"Feature","properties":{"id":44,"length_m":99.43,"oneway":"0","Shape_Leng":13.602982164},"geometry":{"type":"MultiLineString","coordinates":[[[588610.691300000064075,3788463.801200000569224],[588612.867499999701977,3788452.027699999511242],[588613.074900000356138,3788450.410900000482798]]]}},
{"type":"Feature","properties":{"id":54,"length_m":53.41,"oneway":"0","Shape_Leng":8.5302785624399995},"geometry":{"type":"MultiLineString","coordinates":[[[588685.577899999916553,3788398.622500000521541],[588691.571899999864399,3788404.6919]]]}},
{"type":"Feature","properties":{"id":52,"length_m":74.11,"oneway":"0","Shape_Leng":30.498271112800001},"geometry":{"type":"MultiLineString","coordinates":[[[588692.351099999621511,3788385.380400000140071],[588694.416100000031292,3788380.790699999779463],[588697.156700000166893,3788375.382099999114871],[588677.75690000038594,3788375.083200000226498]]]}},
{"type":"Feature","properties":{"id":22,"length_m":26.53,"oneway":"0","Shape_Leng":7.7060936389899997},"geometry":{"type":"MultiLineString","coordinates":[[[588679.505199999548495,3788425.939999999478459],[588682.512600000016391,3788425.801999999210238],[588686.931200000457466,3788427.390699999406934]]]}},
{"type":"Feature","properties":{"id":54,"length_m":53.41,"oneway":"0","Shape_Leng":9.4257383502700005},"geometry":{"type":"MultiLineString","coordinates":[[[588691.571899999864399,3788404.6919],[588700.512900000438094,3788407.675699999555945]]]}},
{"type":"Feature","properties":{"id":23,"length_m":62.49,"oneway":"0","Shape_Leng":18.618350192400001},"geometry":{"type":"MultiLineString","coordinates":[[[588713.14809999987483,3788433.1415],[588710.877000000327826,3788432.892000000923872],[588703.754499999806285,3788434.443499999120831],[588695.085500000044703,3788437.020999999716878]]]}},
{"type":"Feature","properties":{"id":54,"length_m":53.41,"oneway":"0","Shape_Leng":7.3911255108900002},"geometry":{"type":"MultiLineString","coordinates":[[[588700.512900000438094,3788407.675699999555945],[588707.902099999599159,3788407.844399999827147]]]}},
{"type":"Feature","properties":{"id":24,"length_m":170.49,"oneway":"0","Shape_Leng":12.879285730099999},"geometry":{"type":"MultiLineString","coordinates":[[[588713.568500000052154,3788423.964999999850988],[588713.672199999913573,3788421.702500000596046],[588715.737200000323355,3788416.634400000795722],[588719.145200000144541,3788412.784299999475479]]]}},
{"type":"Feature","properties":{"id":54,"length_m":53.41,"oneway":"0","Shape_Leng":7.9256583355299997},"geometry":{"type":"MultiLineString","coordinates":[[[588707.902099999599159,3788407.844399999827147],[588709.155799999833107,3788407.872899999842048],[588715.139499999582767,3788404.9222999997437]]]}},
{"type":"Feature","properties":{"id":59,"length_m":22.39,"oneway":"0","Shape_Leng":8.2109125522199999},"geometry":{"type":"MultiLineString","coordinates":[[[588703.041100000031292,3788423.538799999281764],[588707.345599999651313,3788425.429500000551343],[588710.808600000105798,3788424.884099999442697],[588710.812199999578297,3788424.88289999961853]]]}},
{"type":"Feature","properties":{"id":54,"length_m":53.41,"oneway":"0","Shape_Leng":1.03549341331},"geometry":{"type":"MultiLineString","coordinates":[[[588713.778699999675155,3788386.2939],[588713.016200000420213,3788385.593299999833107]]]}},
{"type":"Feature","properties":{"id":24,"length_m":170.49,"oneway":"0","Shape_Leng":43.749470793999997},"geometry":{"type":"MultiLineString","coordinates":[[[588725.431200000457466,3788397.516100000590086],[588731.327499999664724,3788372.842800000682473],[588731.439899999648333,3788360.934299999848008],[588727.173499999567866,3788356.067099999636412]]]}},
{"type":"Feature","properties":{"id":52,"length_m":74.11,"oneway":"0","Shape_Leng":14.9219696944},"geometry":{"type":"MultiLineString","coordinates":[[[588685.577899999916553,3788398.622500000521541],[588687.940700000151992,3788395.1831],[588692.351099999621511,3788385.380400000140071]]]}},
{"type":"Feature","properties":{"id":63,"length_m":29.36,"oneway":"0","Shape_Leng":12.6678080518},"geometry":{"type":"MultiLineString","coordinates":[[[588715.139499999582767,3788404.9222999997437],[588725.427600000053644,3788397.531199999153614]]]}},
{"type":"Feature","properties":{"id":24,"length_m":170.49,"oneway":"0","Shape_Leng":16.579301133400001},"geometry":{"type":"MultiLineString","coordinates":[[[588719.145200000144541,3788412.784299999475479],[588720.2034,3788411.588999999687076],[588725.422500000335276,3788397.54450000077486]]]}},
{"type":"Feature","properties":{"id":24,"length_m":170.49,"oneway":"0","Shape_Leng":0.01552320713},"geometry":{"type":"MultiLineString","coordinates":[[[588725.427600000053644,3788397.531199999153614],[588725.431200000457466,3788397.516100000590086]]]}},
{"type":"Feature","properties":{"id":24,"length_m":170.49,"oneway":"0","Shape_Leng":11.9789202893},"geometry":{"type":"MultiLineString","coordinates":[[[588727.173499999567866,3788356.067099999636412],[588726.023299999535084,3788354.754899999126792],[588720.763799999840558,3788352.277100000530481],[588716.433100000023842,3788353.161299999803305]]]}},
{"type":"Feature","properties":{"id":24,"length_m":170.49,"oneway":"0","Shape_Leng":0.01424429852},"geometry":{"type":"MultiLineString","coordinates":[[[588725.422500000335276,3788397.54450000077486],[588725.427600000053644,3788397.531199999153614]]]}},
{"type":"Feature","properties":{"id":24,"length_m":170.49,"oneway":"0","Shape_Leng":9.1861247765999998},"geometry":{"type":"MultiLineString","coordinates":[[[588713.14809999987483,3788433.1415],[588713.568500000052154,3788423.964999999850988]]]}},
{"type":"Feature","properties":{"id":59,"length_m":22.39,"oneway":"0","Shape_Leng":2.9051213575700001},"geometry":{"type":"MultiLineString","coordinates":[[[588710.812199999578297,3788424.88289999961853],[588713.568500000052154,3788423.964999999850988]]]}},
{"type":"Feature","properties":{"id":33,"length_m":26.71,"oneway":"0","Shape_Leng":4.1635709118799999},"geometry":{"type":"MultiLineString","coordinates":[[[588634.696399999782443,3788430.612600000575185],[588634.720700000412762,3788426.449100000783801]]]}},
{"type":"Feature","properties":{"id":34,"length_m":18.77,"oneway":"0","Shape_Leng":4.2740184709899998},"geometry":{"type":"MultiLineString","coordinates":[[[588650.09360000025481,3788430.521199999377131],[588650.186900000087917,3788426.248199999332428]]]}},
{"type":"Feature","properties":{"id":48,"length_m":22.64,"oneway":"0","Shape_Leng":0.0043999999800000003},"geometry":{"type":"MultiLineString","coordinates":[[[588634.593000000342727,3788448.297700000926852],[588634.593000000342727,3788448.30210000090301]]]}},
{"type":"Feature","properties":{"id":33,"length_m":26.71,"oneway":"0","Shape_Leng":4.85558364114},"geometry":{"type":"MultiLineString","coordinates":[[[588634.564500000327826,3788453.157600000500679],[588634.593000000342727,3788448.30210000090301]]]}},
{"type":"Feature","properties":{"id":33,"length_m":26.71,"oneway":"0","Shape_Leng":0.00210000016},"geometry":{"type":"MultiLineString","coordinates":[[[588634.593000000342727,3788448.29869999922812],[588634.593000000342727,3788448.296599999070168]]]}},
{"type":"Feature","properties":{"id":48,"length_m":22.64,"oneway":"0","Shape_Leng":0.00139999948},"geometry":{"type":"MultiLineString","coordinates":[[[588634.593000000342727,3788448.2972999997437],[588634.593000000342727,3788448.29869999922812]]]}},
{"type":"Feature","properties":{"id":33,"length_m":26.71,"oneway":"0","Shape_Leng":0.00139999948},"geometry":{"type":"MultiLineString","coordinates":[[[588634.593000000342727,3788448.29869999922812],[588634.593000000342727,3788448.2972999997437]]]}},
{"type":"Feature","properties":{"id":33,"length_m":26.71,"oneway":"0","Shape_Leng":0.0043999999800000003},"geometry":{"type":"MultiLineString","coordinates":[[[588634.593000000342727,3788448.30210000090301],[588634.593000000342727,3788448.297700000926852]]]}},
{"type":"Feature","properties":{"id":33,"length_m":26.71,"oneway":"0","Shape_Leng":0.00130000152},"geometry":{"type":"MultiLineString","coordinates":[[[588634.593000000342727,3788448.297900000587106],[588634.593000000342727,3788448.296599999070168]]]}},
{"type":"Feature","properties":{"id":94,"length_m":53.29,"oneway":"0","Shape_Leng":16.4391697495},"geometry":{"type":"MultiLineString","coordinates":[[[588646.873499999754131,3788344.766200000420213],[588663.046799999661744,3788341.821599999442697]]]}},
{"type":"Feature","properties":{"id":81,"length_m":141.5,"oneway":"0","Shape_Leng":15.1524640161},"geometry":{"type":"MultiLineString","coordinates":[[[588569.240299999713898,3788352.491399999707937],[588554.094600000418723,3788352.038699999451637]]]}},
{"type":"Feature","properties":{"id":79,"length_m":52.55,"oneway":"0","Shape_Leng":4.8596414315300001},"geometry":{"type":"MultiLineString","coordinates":[[[588645.533099999651313,3788359.6316],[588645.754399999976158,3788354.777000000700355]]]}},
{"type":"Feature","properties":{"id":64,"length_m":42.32,"oneway":"0","Shape_Leng":8.8973660457200001},"geometry":{"type":"MultiLineString","coordinates":[[[588722.820600000210106,3788359.32149999961257],[588719.5318,3788355.704500000923872],[588716.433100000023842,3788353.161299999803305]]]}},
{"type":"Feature","properties":{"id":64,"length_m":42.32,"oneway":"0","Shape_Leng":0.00148660698},"geometry":{"type":"MultiLineString","coordinates":[[[588722.821600000374019,3788359.322599999606609],[588722.820600000210106,3788359.32149999961257]]]}},
{"type":"Feature","properties":{"id":57,"length_m":23.93,"oneway":"0","Shape_Leng":10.5492659603},"geometry":{"type":"MultiLineString","coordinates":[[[588686.931200000457466,3788427.390699999406934],[588692.916000000201166,3788418.703400000929832]]]}},
{"type":"Feature","properties":{"id":104,"length_m":100.98,"oneway":"0","Shape_Leng":39.971756186900002},"geometry":{"type":"MultiLineString","coordinates":[[[588538.520299999974668,3788569.6414],[588517.584699999541044,3788569.126900000497699],[588498.574900000356138,3788568.253900000825524]]]}},
{"type":"Feature","properties":{"id":104,"length_m":100.98,"oneway":"0","Shape_Leng":19.433093227299999},"geometry":{"type":"MultiLineString","coordinates":[[[588588.229399999603629,3788543.7193],[588578.752399999648333,3788560.684900000691414]]]}},
{"type":"Feature","properties":{"id":103,"length_m":91.55,"oneway":"0","Shape_Leng":41.266083371599997},"geometry":{"type":"MultiLineString","coordinates":[[[588538.723399999551475,3788548.356100000441074],[588525.5636,3788548.042300000786781],[588520.584699999541044,3788546.376499999314547],[588516.583599999547005,3788542.869999999180436],[588511.510800000280142,3788540.972100000828505],[588503.350499999709427,3788540.5483],[588499.410600000061095,3788540.74239999987185]]]}},
{"type":"Feature","properties":{"id":1,"length_m":256.91,"oneway":"0","Shape_Leng":45.575447063399999},"geometry":{"type":"MultiLineString","coordinates":[[[588586.961199999786913,3788540.700999999418855],[588578.633899999782443,3788527.4408],[588579.194799999706447,3788508.714400000870228],[588580.378499999642372,3788497.594699999317527]]]}},
{"type":"Feature","properties":{"id":1,"length_m":256.91,"oneway":"0","Shape_Leng":44.959758717600003},"geometry":{"type":"MultiLineString","coordinates":[[[588580.378499999642372,3788497.594699999317527],[588580.670300000347197,3788494.853000000119209],[588581.764000000432134,3788452.664599999785423]]]}},
{"type":"Feature","properties":{"id":1,"length_m":256.91,"oneway":"0","Shape_Leng":14.4722592481},"geometry":{"type":"MultiLineString","coordinates":[[[588581.764000000432134,3788452.664599999785423],[588582.139000000432134,3788438.197200000286102]]]}},
{"type":"Feature","properties":{"id":1,"length_m":256.91,"oneway":"0","Shape_Leng":11.443741706799999},"geometry":{"type":"MultiLineString","coordinates":[[[588582.139000000432134,3788438.197200000286102],[588582.435499999672174,3788426.75730000063777]]]}},
{"type":"Feature","properties":{"id":1,"length_m":256.91,"oneway":"0","Shape_Leng":48.444768979199999},"geometry":{"type":"MultiLineString","coordinates":[[[588582.435499999672174,3788426.75730000063777],[588583.690899999812245,3788378.32880000025034]]]}},
{"type":"Feature","properties":{"id":1,"length_m":256.91,"oneway":"0","Shape_Leng":42.8652323759},"geometry":{"type":"MultiLineString","coordinates":[[[588583.690899999812245,3788378.32880000025034],[588584.001899999566376,3788365.72829999960959],[588553.746000000275671,3788365.17850000038743]]]}},
{"type":"Feature","properties":{"id":1,"length_m":256.91,"oneway":"0","Shape_Leng":14.9790697826},"geometry":{"type":"MultiLineString","coordinates":[[[588519.556699999608099,3788364.557399999350309],[588504.580099999904633,3788364.285399999469519]]]}},
{"type":"Feature","properties":{"id":5,"length_m":113.51,"oneway":"0","Shape_Leng":31.890052475000001},"geometry":{"type":"MultiLineString","coordinates":[[[588603.2807,3788475.525299999862909],[588596.869900000281632,3788483.096200000494719],[588589.700500000268221,3788489.619400000199676],[588584.565499999560416,3788494.311599999666214],[588580.378499999642372,3788497.594699999317527]]]}},
{"type":"Feature","properties":{"id":5,"length_m":113.51,"oneway":"0","Shape_Leng":26.901630348800001},"geometry":{"type":"MultiLineString","coordinates":[[[588637.3125,3788523.254000000655651],[588628.791000000201166,3788510.223200000822544],[588626.109400000423193,3788499.213199999183416]]]}},
{"type":"Feature","properties":{"id":5,"length_m":113.51,"oneway":"0","Shape_Leng":13.706657589000001},"geometry":{"type":"MultiLineString","coordinates":[[[588626.109400000423193,3788499.213199999183416],[588625.306200000457466,3788492.730499999597669],[588625.085699999704957,3788485.559499999508262]]]}},
{"type":"Feature","properties":{"id":7,"length_m":38.22,"oneway":"0","Shape_Leng":6.9551201148699997},"geometry":{"type":"MultiLineString","coordinates":[[[588599.026499999687076,3788498.842000000178814],[588600.706699999980628,3788504.0033],[588601.440100000239909,3788505.3429000005126]]]}},
{"type":"Feature","properties":{"id":7,"length_m":38.22,"oneway":"0","Shape_Leng":4.2396372790400001},"geometry":{"type":"MultiLineString","coordinates":[[[588622.03139999974519,3788500.372700000181794],[588626.109400000423193,3788499.213199999183416]]]}},
{"type":"Feature","properties":{"id":5,"length_m":113.51,"oneway":"0","Shape_Leng":13.935973209},"geometry":{"type":"MultiLineString","coordinates":[[[588610.691300000064075,3788463.801200000569224],[588609.022499999962747,3788467.601199999451637],[588603.2807,3788475.525299999862909]]]}},
{"type":"Feature","properties":{"id":13,"length_m":45.68,"oneway":"0","Shape_Leng":20.2233682884},"geometry":{"type":"MultiLineString","coordinates":[[[588672.634999999776483,3788495.316600000485778],[588679.207399999722838,3788490.9847999997437],[588690.11600000038743,3788485.1908]]]}},
{"type":"Feature","properties":{"id":13,"length_m":45.68,"oneway":"0","Shape_Leng":1.44819068107},"geometry":{"type":"MultiLineString","coordinates":[[[588690.11600000038743,3788485.1908],[588691.11600000038743,3788484.143300000578165]]]}},
{"type":"Feature","properties":{"id":13,"length_m":45.68,"oneway":"0","Shape_Leng":0.96155733116999997},"geometry":{"type":"MultiLineString","coordinates":[[[588692.138500000350177,3788464.281300000846386],[588691.375599999912083,3788463.696000000461936]]]}},
{"type":"Feature","properties":{"id":18,"length_m":41.51,"oneway":"0","Shape_Leng":13.633980186200001},"geometry":{"type":"MultiLineString","coordinates":[[[588679.369099999777973,3788473.873400000855327],[588687.096300000324845,3788462.640599999576807]]]}},
{"type":"Feature","properties":{"id":21,"length_m":25.44,"oneway":"0","Shape_Leng":4.7943927605600001},"geometry":{"type":"MultiLineString","coordinates":[[[588674.071000000461936,3788430.9792],[588674.152499999850988,3788426.185499999672174]]]}},
{"type":"Feature","properties":{"id":35,"length_m":19.47,"oneway":"0","Shape_Leng":4.510825274},"geometry":{"type":"MultiLineString","coordinates":[[[588656.895999999716878,3788430.706900000572205],[588656.911100000143051,3788426.196100000292063]]]}},
{"type":"Feature","properties":{"id":35,"length_m":19.47,"oneway":"0","Shape_Leng":4.2753235817700004},"geometry":{"type":"MultiLineString","coordinates":[[[588656.881799999624491,3788434.982200000435114],[588656.895999999716878,3788430.706900000572205]]]}},
{"type":"Feature","properties":{"id":34,"length_m":18.77,"oneway":"0","Shape_Leng":4.27912162319},"geometry":{"type":"MultiLineString","coordinates":[[[588650.000099999830127,3788434.7993],[588650.09360000025481,3788430.521199999377131]]]}},
{"type":"Feature","properties":{"id":29,"length_m":34.49,"oneway":"0","Shape_Leng":9.9453848220799994},"geometry":{"type":"MultiLineString","coordinates":[[[588653.209999999962747,3788451.946100000292063],[588653.111800000071526,3788442.001199999824166]]]}},
{"type":"Feature","properties":{"id":22,"length_m":26.53,"oneway":"0","Shape_Leng":5.35832693449},"geometry":{"type":"MultiLineString","coordinates":[[[588674.152499999850988,3788426.185499999672174],[588679.505199999548495,3788425.939999999478459]]]}},
{"type":"Feature","properties":{"id":22,"length_m":26.53,"oneway":"0","Shape_Leng":3.5612510723800002},"geometry":{"type":"MultiLineString","coordinates":[[[588693.888899999670684,3788433.666799999773502],[588695.085500000044703,3788437.020999999716878]]]}},
{"type":"Feature","properties":{"id":59,"length_m":22.39,"oneway":"0","Shape_Leng":3.9142507641100002},"geometry":{"type":"MultiLineString","coordinates":[[[588692.916000000201166,3788418.703400000929832],[588696.052899999544024,3788421.044600000604987]]]}},
{"type":"Feature","properties":{"id":60,"length_m":25.96,"oneway":"0","Shape_Leng":8.5796936270500002},"geometry":{"type":"MultiLineString","coordinates":[[[588713.14809999987483,3788433.1415],[588710.812599999830127,3788424.885800000280142]]]}},
{"type":"Feature","properties":{"id":60,"length_m":25.96,"oneway":"0","Shape_Leng":1.62934731049},"geometry":{"type":"MultiLineString","coordinates":[[[588710.812199999578297,3788424.88289999961853],[588710.424300000071526,3788423.3004]]]}},
{"type":"Feature","properties":{"id":60,"length_m":25.96,"oneway":"0","Shape_Leng":0.00292745692},"geometry":{"type":"MultiLineString","coordinates":[[[588710.812599999830127,3788424.885800000280142],[588710.812199999578297,3788424.88289999961853]]]}},
{"type":"Feature","properties":{"id":24,"length_m":170.49,"oneway":"0","Shape_Leng":12.285143378400001},"geometry":{"type":"MultiLineString","coordinates":[[[588716.433100000023842,3788353.161299999803305],[588712.222500000149012,3788351.502699999138713],[588707.86629999987781,3788345.081199999898672]]]}},
{"type":"Feature","properties":{"id":24,"length_m":170.49,"oneway":"0","Shape_Leng":19.839129374399999},"geometry":{"type":"MultiLineString","coordinates":[[[588707.86629999987781,3788345.081199999898672],[588706.538499999791384,3788343.123800000175834],[588696.201799999922514,3788329.035199999809265]]]}},
{"type":"Feature","properties":{"id":24,"length_m":170.49,"oneway":"0","Shape_Leng":18.424426432800001},"geometry":{"type":"MultiLineString","coordinates":[[[588696.201799999922514,3788329.035199999809265],[588688.272699999623001,3788324.450799999758601],[588679.971699999645352,3788320.334799999371171]]]}},
{"type":"Feature","properties":{"id":24,"length_m":170.49,"oneway":"0","Shape_Leng":1.9804931431899999},"geometry":{"type":"MultiLineString","coordinates":[[[588679.971699999645352,3788320.334799999371171],[588679.476999999955297,3788320.089500000700355],[588678.562300000339746,3788318.992499999701977]]]}},
{"type":"Feature","properties":{"id":76,"length_m":58.44,"oneway":"0","Shape_Leng":21.821731596700001},"geometry":{"type":"MultiLineString","coordinates":[[[588677.75690000038594,3788375.083200000226498],[588677.820199999958277,3788368.377299999818206],[588680.473500000312924,3788362.042899999767542],[588680.9068,3788356.843699999153614],[588680.550999999977648,3788353.834000000730157]]]}},
{"type":"Feature","properties":{"id":44,"length_m":99.43,"oneway":"0","Shape_Leng":27.5595319631},"geometry":{"type":"MultiLineString","coordinates":[[[588613.074900000356138,3788450.410900000482798],[588613.535500000230968,3788442.3213],[588618.130300000309944,3788433.808199999853969],[588622.038599999621511,3788426.791799999773502],[588623.110100000165403,3788425.406400000676513]]]}},
{"type":"Feature","properties":{"id":44,"length_m":99.43,"oneway":"0","Shape_Leng":22.317031694000001},"geometry":{"type":"MultiLineString","coordinates":[[[588623.110100000165403,3788425.406400000676513],[588624.080599999986589,3788424.151699999347329],[588630.226300000213087,3788414.150100000202656],[588632.597900000400841,3788407.119200000539422],[588633.590400000102818,3788405.900399999693036]]]}},
{"type":"Feature","properties":{"id":49,"length_m":44.09,"oneway":"0","Shape_Leng":11.0760005533},"geometry":{"type":"MultiLineString","coordinates":[[[588582.435499999672174,3788426.75730000063777],[588593.511500000022352,3788426.753799999132752]]]}},
{"type":"Feature","properties":{"id":49,"length_m":44.09,"oneway":"0","Shape_Leng":15.688109344200001},"geometry":{"type":"MultiLineString","coordinates":[[[588593.511500000022352,3788426.753799999132752],[588597.091300000436604,3788424.012499999254942],[588602.003700000233948,3788422.555700000375509],[588608.056599999777973,3788422.3816]]]}},
{"type":"Feature","properties":{"id":67,"length_m":41.97,"oneway":"0","Shape_Leng":10.622668967799999},"geometry":{"type":"MultiLineString","coordinates":[[[588612.053600000217557,3788405.849600000306964],[588612.510400000028312,3788408.4616],[588610.66370000038296,3788410.756699999794364],[588606.69649999961257,3788413.841199999675155]]]}},
{"type":"Feature","properties":{"id":67,"length_m":41.97,"oneway":"0","Shape_Leng":13.803116694},"geometry":{"type":"MultiLineString","coordinates":[[[588601.0472999997437,3788401.762599999085069],[588604.994900000281632,3788400.759199999272823],[588609.215400000102818,3788401.3772],[588611.781299999915063,3788404.292099999263883],[588612.053600000217557,3788405.849600000306964]]]}},
{"type":"Feature","properties":{"id":72,"length_m":43.04,"oneway":"0","Shape_Leng":3.3738745004599999},"geometry":{"type":"MultiLineString","coordinates":[[[588628.454400000162423,3788393.884500000625849],[588629.746899999678135,3788393.7083],[588631.759499999694526,3788394.189899999648333]]]}},
{"type":"Feature","properties":{"id":73,"length_m":42.72,"oneway":"0","Shape_Leng":9.3283833482799992},"geometry":{"type":"MultiLineString","coordinates":[[[588628.454400000162423,3788393.884500000625849],[588628.872700000181794,3788384.565500000491738]]]}},
{"type":"Feature","properties":{"id":73,"length_m":42.72,"oneway":"0","Shape_Leng":4.0640653546100003},"geometry":{"type":"MultiLineString","coordinates":[[[588642.339599999599159,3788362.145199999213219],[588645.533099999651313,3788359.6316]]]}},
{"type":"Feature","properties":{"id":2,"length_m":78.08,"oneway":"0","Shape_Leng":32.758544347399997},"geometry":{"type":"MultiLineString","coordinates":[[[588583.690899999812245,3788378.32880000025034],[588550.936999999918044,3788377.777200000360608]]]}},
{"type":"Feature","properties":{"id":2,"length_m":78.08,"oneway":"0","Shape_Leng":14.019284863599999},"geometry":{"type":"MultiLineString","coordinates":[[[588519.629999999888241,3788377.250099999830127],[588505.612700000405312,3788377.0142]]]}},
{"type":"Feature","properties":{"id":1,"length_m":256.91,"oneway":"0","Shape_Leng":2.6859433525899998},"geometry":{"type":"MultiLineString","coordinates":[[[588553.746000000275671,3788365.17850000038743],[588551.060499999672174,3788365.129699999466538]]]}},
{"type":"Feature","properties":{"id":1,"length_m":256.91,"oneway":"0","Shape_Leng":2.8847759445499999},"geometry":{"type":"MultiLineString","coordinates":[[[588551.060499999672174,3788365.129699999466538],[588548.176199999637902,3788365.077299999073148]]]}},
{"type":"Feature","properties":{"id":81,"length_m":141.5,"oneway":"0","Shape_Leng":30.067301026300001},"geometry":{"type":"MultiLineString","coordinates":[[[588534.379200000315905,3788351.449799999594688],[588504.325299999676645,3788350.552200000733137]]]}},
{"type":"Feature","properties":{"id":81,"length_m":141.5,"oneway":"0","Shape_Leng":14.140804187900001},"geometry":{"type":"MultiLineString","coordinates":[[[588548.513700000010431,3788351.871999999508262],[588534.379200000315905,3788351.449799999594688]]]}},
{"type":"Feature","properties":{"id":81,"length_m":141.5,"oneway":"0","Shape_Leng":5.5833890876899996},"geometry":{"type":"MultiLineString","coordinates":[[[588554.094600000418723,3788352.038699999451637],[588548.513700000010431,3788351.871999999508262]]]}},
{"type":"Feature","properties":{"id":84,"length_m":184.96,"oneway":"0","Shape_Leng":27.219923527100001},"geometry":{"type":"MultiLineString","coordinates":[[[588534.379200000315905,3788351.449799999594688],[588534.847199999727309,3788324.233899999409914]]]}},
{"type":"Feature","properties":{"id":84,"length_m":184.96,"oneway":"0","Shape_Leng":24.0372534312},"geometry":{"type":"MultiLineString","coordinates":[[[588534.847199999727309,3788324.233899999409914],[588535.260499999858439,3788300.200200000777841]]]}},
{"type":"Feature","properties":{"id":84,"length_m":184.96,"oneway":"0","Shape_Leng":16.5181667407},"geometry":{"type":"MultiLineString","coordinates":[[[588535.487300000153482,3788287.013299999758601],[588535.660199999809265,3788276.9616],[588537.111700000241399,3788275.81900000013411],[588541.724799999967217,3788276.025399999693036]]]}},
{"type":"Feature","properties":{"id":84,"length_m":184.96,"oneway":"0","Shape_Leng":11.1334299557},"geometry":{"type":"MultiLineString","coordinates":[[[588541.724799999967217,3788276.025399999693036],[588552.847099999897182,3788276.52309999987483]]]}},
{"type":"Feature","properties":{"id":84,"length_m":184.96,"oneway":"0","Shape_Leng":11.924222695799999},"geometry":{"type":"MultiLineString","coordinates":[[[588552.847099999897182,3788276.52309999987483],[588564.759399999864399,3788277.056199999526143]]]}},
{"type":"Feature","properties":{"id":84,"length_m":184.96,"oneway":"0","Shape_Leng":29.860752714899998},"geometry":{"type":"MultiLineString","coordinates":[[[588564.759399999864399,3788277.056199999526143],[588569.852099999785423,3788277.284099999815226],[588571.83739999961108,3788280.655999999493361],[588571.084099999628961,3788301.49239999987185]]]}},
{"type":"Feature","properties":{"id":84,"length_m":184.96,"oneway":"0","Shape_Leng":23.093978621600002},"geometry":{"type":"MultiLineString","coordinates":[[[588571.084099999628961,3788301.49239999987185],[588570.249699999578297,3788324.5713]]]}},
{"type":"Feature","properties":{"id":85,"length_m":35.4,"oneway":"0","Shape_Leng":16.791362314000001},"geometry":{"type":"MultiLineString","coordinates":[[[588534.847199999727309,3788324.233899999409914],[588551.637799999676645,3788324.393899999558926]]]}},
{"type":"Feature","properties":{"id":88,"length_m":35.84,"oneway":"0","Shape_Leng":17.677991218399999},"geometry":{"type":"MultiLineString","coordinates":[[[588553.417600000277162,3788300.855100000277162],[588571.084099999628961,3788301.49239999987185]]]}},
{"type":"Feature","properties":{"id":84,"length_m":184.96,"oneway":"0","Shape_Leng":13.1888502106},"geometry":{"type":"MultiLineString","coordinates":[[[588535.260499999858439,3788300.200200000777841],[588535.487300000153482,3788287.013299999758601]]]}},
{"type":"Feature","properties":{"id":90,"length_m":168.93,"oneway":"0","Shape_Leng":35.790668239699997},"geometry":{"type":"MultiLineString","coordinates":[[[588505.96129999961704,3788258.528000000864267],[588541.694500000216067,3788260.555400000885129]]]}},
{"type":"Feature","properties":{"id":90,"length_m":168.93,"oneway":"0","Shape_Leng":12.518798843500001},"geometry":{"type":"MultiLineString","coordinates":[[[588541.694500000216067,3788260.555400000885129],[588554.193199999630451,3788261.264499999582767]]]}},
{"type":"Feature","properties":{"id":90,"length_m":168.93,"oneway":"0","Shape_Leng":11.1520055465},"geometry":{"type":"MultiLineString","coordinates":[[[588554.193199999630451,3788261.264499999582767],[588565.3273,3788261.896199999377131]]]}},
{"type":"Feature","properties":{"id":80,"length_m":52.11,"oneway":"0","Shape_Leng":7.9207728459200002},"geometry":{"type":"MultiLineString","coordinates":[[[588674.637199999764562,3788268.097999999299645],[588675.671900000423193,3788260.245100000873208]]]}},
{"type":"Feature","properties":{"id":79,"length_m":52.55,"oneway":"0","Shape_Leng":10.082943951700001},"geometry":{"type":"MultiLineString","coordinates":[[[588645.754399999976158,3788354.777000000700355],[588645.896599999628961,3788351.656700000166893],[588646.873499999754131,3788344.766200000420213]]]}},
{"type":"Feature","properties":{"id":79,"length_m":52.55,"oneway":"0","Shape_Leng":18.2660747529},"geometry":{"type":"MultiLineString","coordinates":[[[588652.355100000277162,3788326.252699999138713],[588658.066800000146031,3788308.902599999681115]]]}},
{"type":"Feature","properties":{"id":96,"length_m":33.85,"oneway":"0","Shape_Leng":11.8344974478},"geometry":{"type":"MultiLineString","coordinates":[[[588671.405500000342727,3788329.854000000283122],[588675.306099999696016,3788334.5614],[588678.801599999889731,3788339.090399999171495]]]}},
{"type":"Feature","properties":{"id":100,"length_m":15.06,"oneway":"0","Shape_Leng":4.8227198435899998},"geometry":{"type":"MultiLineString","coordinates":[[[588671.405500000342727,3788329.854000000283122],[588676.218000000342727,3788329.540200000628829]]]}},
{"type":"Feature","properties":{"id":100,"length_m":15.06,"oneway":"0","Shape_Leng":4.51004369253},"geometry":{"type":"MultiLineString","coordinates":[[[588676.218000000342727,3788329.540200000628829],[588678.989099999889731,3788325.981899999082088]]]}},
{"type":"Feature","properties":{"id":94,"length_m":53.29,"oneway":"0","Shape_Leng":15.990236595300001},"geometry":{"type":"MultiLineString","coordinates":[[[588663.046799999661744,3788341.821599999442697],[588670.014600000344217,3788340.552999999374151],[588678.801599999889731,3788339.090399999171495]]]}},
{"type":"Feature","properties":{"id":94,"length_m":53.29,"oneway":"0","Shape_Leng":7.08666511864},"geometry":{"type":"MultiLineString","coordinates":[[[588678.801599999889731,3788339.090399999171495],[588685.792100000195205,3788337.926899999380112]]]}},
{"type":"Feature","properties":{"id":94,"length_m":53.29,"oneway":"0","Shape_Leng":4.9614459680699996},"geometry":{"type":"MultiLineString","coordinates":[[[588685.792100000195205,3788337.926899999380112],[588689.841400000266731,3788335.060000000521541]]]}},
{"type":"Feature","properties":{"id":78,"length_m":38.08,"oneway":"0","Shape_Leng":18.5741649924},"geometry":{"type":"MultiLineString","coordinates":[[[588680.550999999977648,3788353.834000000730157],[588676.598000000230968,3788355.415500000119209],[588671.035000000149012,3788354.55350000038743],[588669.326999999582767,3788352.340500000864267],[588670.517699999734759,3788348.3048],[588671.395700000226498,3788346.867799999192357]]]}}
]
}
